start=new Date('2023-05-06T00:00:00.000Z').valueOf();
sats=[{"REV_AT_EPOCH":"12453","MEAN_ELEMENT_THEORY":"SGP4","INCLINATION":"53.0554","OBJECT_TYPE":"PAYLOAD","ARG_OF_PERICENTER":"56.2649","TIME_SYSTEM":"UTC","PERIOD":"95.592","GP_ID":"231293037","EPOCH":"2023-05-05T20:49:25.862016","MEAN_MOTION_DDOT":"0.0000000000000","MEAN_MOTION_DOT":"0.00023104","SITE":"AFETR","BSTAR":"0.00156480000000","RCS_SIZE":"LARGE","FILE":"3901892","SEMIMAJOR_AXIS":"6925.345","TLE_LINE2":"2 47574  53.0554  25.0726 0001271  56.2649 303.8461 15.06401321124539","TLE_LINE1":"1 47574U 21009AC  23125.86766044  .00023104  00000-0  15648-2 0  9999","MEAN_MOTION":"15.06401321","ECCENTRICITY":"0.00012710","OBJECT_NAME":"STARLINK-1976","COUNTRY_CODE":"US","REF_FRAME":"TEME","LAUNCH_DATE":"2021-02-04","DECAY_DATE":null,"PERIAPSIS":"546.329","CENTER_NAME":"EARTH","EPHEMERIS_TYPE":"0","CLASSIFICATION_TYPE":"U","MEAN_ANOMALY":"303.8461","NORAD_CAT_ID":"47574","OBJECT_ID":"2021-009AC","APOAPSIS":"548.090","ELEMENT_SET_NO":"999","RA_OF_ASC_NODE":"25.0726"},{"TIME_SYSTEM":"UTC","ARG_OF_PERICENTER":"77.2446","INCLINATION":"53.0550","OBJECT_TYPE":"PAYLOAD","REV_AT_EPOCH":"12442","MEAN_ELEMENT_THEORY":"SGP4","TLE_LINE2":"2 47575  53.0550  28.3968 0001045  77.2446 282.8660 15.06430815124422","TLE_LINE1":"1 47575U 21009AD  23125.12678292  .00027445  00000-0  18527-2 0  9997","MEAN_MOTION":"15.06430815","ECCENTRICITY":"0.00010450","BSTAR":"0.00185270000000","SITE":"AFETR","MEAN_MOTION_DOT":"0.00027445","EPOCH":"2023-05-05T03:02:34.044288","MEAN_MOTION_DDOT":"0.0000000000000","FILE":"3901637","SEMIMAJOR_AXIS":"6925.254","RCS_SIZE":"LARGE","PERIOD":"95.590","GP_ID":"231287112","PERIAPSIS":"546.395","LAUNCH_DATE":"2021-02-04","REF_FRAME":"TEME","DECAY_DATE":null,"OBJECT_NAME":"STARLINK-1977","COUNTRY_CODE":"US","ELEMENT_SET_NO":"999","RA_OF_ASC_NODE":"28.3968","OBJECT_ID":"2021-009AD","NORAD_CAT_ID":"47575","MEAN_ANOMALY":"282.8660","CLASSIFICATION_TYPE":"U","APOAPSIS":"547.843","CENTER_NAME":"EARTH","EPHEMERIS_TYPE":"0"},{"PERIAPSIS":"546.501","OBJECT_NAME":"STARLINK-1978","COUNTRY_CODE":"US","REF_FRAME":"TEME","LAUNCH_DATE":"2021-02-04","DECAY_DATE":null,"RA_OF_ASC_NODE":"344.9721","ELEMENT_SET_NO":"999","CENTER_NAME":"EARTH","EPHEMERIS_TYPE":"0","CLASSIFICATION_TYPE":"U","MEAN_ANOMALY":"283.5287","NORAD_CAT_ID":"47576","OBJECT_ID":"2021-009AE","APOAPSIS":"548.032","ARG_OF_PERICENTER":"76.5825","TIME_SYSTEM":"UTC","REV_AT_EPOCH":"12511","MEAN_ELEMENT_THEORY":"SGP4","INCLINATION":"53.0543","OBJECT_TYPE":"PAYLOAD","MEAN_MOTION_DDOT":"0.0000000000000","EPOCH":"2023-05-05T21:21:17.582976","SITE":"AFETR","BSTAR":"0.00146650000000","MEAN_MOTION_DOT":"0.00021619","SEMIMAJOR_AXIS":"6925.402","FILE":"3901892","RCS_SIZE":"LARGE","TLE_LINE2":"2 47576  53.0543 344.9721 0001105  76.5825 283.5287 15.06382665125118","MEAN_MOTION":"15.06382665","TLE_LINE1":"1 47576U 21009AE  23125.88978684  .00021619  00000-0  14665-2 0  9995","ECCENTRICITY":"0.00011050","PERIOD":"95.593","GP_ID":"231293031"},{"GP_ID":"231293042","PERIOD":"95.593","SEMIMAJOR_AXIS":"6925.380","FILE":"3901892","RCS_SIZE":"LARGE","BSTAR":"0.00130470000000","SITE":"AFETR","MEAN_MOTION_DOT":"0.00019200","EPOCH":"2023-05-05T22:20:19.938912","MEAN_MOTION_DDOT":"0.0000000000000","ECCENTRICITY":"0.00008800","MEAN_MOTION":"15.06389845","TLE_LINE2":"2 47577  53.0550 359.7866 0000880  93.2501 266.8589 15.06389845124909","TLE_LINE1":"1 47577U 21009AF  23125.93078633  .00019200  00000-0  13047-2 0  9993","REV_AT_EPOCH":"12490","MEAN_ELEMENT_THEORY":"SGP4","OBJECT_TYPE":"PAYLOAD","INCLINATION":"53.0550","TIME_SYSTEM":"UTC","ARG_OF_PERICENTER":"93.2501","EPHEMERIS_TYPE":"0","CENTER_NAME":"EARTH","APOAPSIS":"547.854","NORAD_CAT_ID":"47577","OBJECT_ID":"2021-009AF","CLASSIFICATION_TYPE":"U","MEAN_ANOMALY":"266.8589","ELEMENT_SET_NO":"999","RA_OF_ASC_NODE":"359.7866","COUNTRY_CODE":"US","OBJECT_NAME":"STARLINK-1979","DECAY_DATE":null,"LAUNCH_DATE":"2021-02-04","REF_FRAME":"TEME","PERIAPSIS":"546.635"},{"TIME_SYSTEM":"UTC","ARG_OF_PERICENTER":"89.4752","OBJECT_TYPE":"PAYLOAD","INCLINATION":"53.0550","REV_AT_EPOCH":"12482","MEAN_ELEMENT_THEORY":"SGP4","ECCENTRICITY":"0.00006850","MEAN_MOTION":"15.06391414","TLE_LINE2":"2 47578  53.0550   4.8154 0000685  89.4752 270.6316 15.06391414124823","TLE_LINE1":"1 47578U 21009AG  23125.92479670  .00023645  00000-0  16013-2 0  9993","FILE":"3901892","RCS_SIZE":"LARGE","SEMIMAJOR_AXIS":"6925.375","MEAN_MOTION_DOT":"0.00023645","SITE":"AFETR","BSTAR":"0.00160130000000","EPOCH":"2023-05-05T22:11:42.434880","MEAN_MOTION_DDOT":"0.0000000000000","GP_ID":"231293040","PERIOD":"95.593","PERIAPSIS":"546.765","DECAY_DATE":null,"LAUNCH_DATE":"2021-02-04","REF_FRAME":"TEME","COUNTRY_CODE":"US","OBJECT_NAME":"STARLINK-1980","ELEMENT_SET_NO":"999","RA_OF_ASC_NODE":"4.8154","APOAPSIS":"547.714","NORAD_CAT_ID":"47578","OBJECT_ID":"2021-009AG","MEAN_ANOMALY":"270.6316","CLASSIFICATION_TYPE":"U","EPHEMERIS_TYPE":"0","CENTER_NAME":"EARTH"},{"OBJECT_NAME":"STARLINK-1981","COUNTRY_CODE":"US","REF_FRAME":"TEME","LAUNCH_DATE":"2021-02-04","DECAY_DATE":null,"PERIAPSIS":"546.774","CENTER_NAME":"EARTH","EPHEMERIS_TYPE":"0","CLASSIFICATION_TYPE":"U","MEAN_ANOMALY":"280.9356","NORAD_CAT_ID":"47579","OBJECT_ID":"2021-009AH","APOAPSIS":"547.761","RA_OF_ASC_NODE":"354.8940","ELEMENT_SET_NO":"999","REV_AT_EPOCH":"12496","MEAN_ELEMENT_THEORY":"SGP4","INCLINATION":"53.0547","OBJECT_TYPE":"PAYLOAD","ARG_OF_PERICENTER":"79.1713","TIME_SYSTEM":"UTC","PERIOD":"95.593","GP_ID":"231293034","MEAN_MOTION_DDOT":"0.0000000000000","EPOCH":"2023-05-05T21:46:30.443520","BSTAR":"0.00145280000000","SITE":"AFETR","MEAN_MOTION_DOT":"0.00021414","FILE":"3901892","SEMIMAJOR_AXIS":"6925.403","RCS_SIZE":"LARGE","TLE_LINE2":"2 47579  53.0547 354.8940 0000713  79.1713 280.9356 15.06382375124965","TLE_LINE1":"1 47579U 21009AH  23125.90729680  .00021414  00000-0  14528-2 0  9992","MEAN_MOTION":"15.06382375","ECCENTRICITY":"0.00007130"},{"GP_ID":"231293018","PERIOD":"95.593","SEMIMAJOR_AXIS":"6925.401","FILE":"3901892","RCS_SIZE":"LARGE","SITE":"AFETR","MEAN_MOTION_DOT":"0.00015801","BSTAR":"0.00107780000000","EPOCH":"2023-05-05T22:17:01.462560","MEAN_MOTION_DDOT":"0.0000000000000","ECCENTRICITY":"0.00014500","TLE_LINE2":"2 47580  53.0559   4.8023 0001450  98.8138 261.3015 15.06382892124826","TLE_LINE1":"1 47580U 21009AJ  23125.92848915  .00015801  00000-0  10778-2 0  9995","MEAN_MOTION":"15.06382892","MEAN_ELEMENT_THEORY":"SGP4","REV_AT_EPOCH":"12482","OBJECT_TYPE":"PAYLOAD","INCLINATION":"53.0559","TIME_SYSTEM":"UTC","ARG_OF_PERICENTER":"98.8138","EPHEMERIS_TYPE":"0","CENTER_NAME":"EARTH","APOAPSIS":"548.270","NORAD_CAT_ID":"47580","OBJECT_ID":"2021-009AJ","CLASSIFICATION_TYPE":"U","MEAN_ANOMALY":"261.3015","ELEMENT_SET_NO":"999","RA_OF_ASC_NODE":"4.8023","COUNTRY_CODE":"US","OBJECT_NAME":"STARLINK-1982","DECAY_DATE":null,"LAUNCH_DATE":"2021-02-04","REF_FRAME":"TEME","PERIAPSIS":"546.262"},{"CENTER_NAME":"EARTH","EPHEMERIS_TYPE":"0","CLASSIFICATION_TYPE":"U","MEAN_ANOMALY":"251.9709","NORAD_CAT_ID":"47581","OBJECT_ID":"2021-009AK","APOAPSIS":"548.040","RA_OF_ASC_NODE":"344.8891","ELEMENT_SET_NO":"999","OBJECT_NAME":"STARLINK-1984","COUNTRY_CODE":"US","REF_FRAME":"TEME","LAUNCH_DATE":"2021-02-04","DECAY_DATE":null,"PERIAPSIS":"546.477","PERIOD":"95.593","GP_ID":"231293010","EPOCH":"2023-05-05T21:47:48.975936","MEAN_MOTION_DDOT":"0.0000000000000","MEAN_MOTION_DOT":"0.00023545","SITE":"AFETR","BSTAR":"0.00159490000000","FILE":"3901892","SEMIMAJOR_AXIS":"6925.393","RCS_SIZE":"LARGE","MEAN_MOTION":"15.06385386","TLE_LINE2":"2 47581  53.0542 344.8891 0001128 108.1403 251.9709 15.06385386125110","TLE_LINE1":"1 47581U 21009AK  23125.90820574  .00023545  00000-0  15949-2 0  9994","ECCENTRICITY":"0.00011280","REV_AT_EPOCH":"12511","MEAN_ELEMENT_THEORY":"SGP4","INCLINATION":"53.0542","OBJECT_TYPE":"PAYLOAD","ARG_OF_PERICENTER":"108.1403","TIME_SYSTEM":"UTC"},{"OBJECT_TYPE":"PAYLOAD","INCLINATION":"53.0548","MEAN_ELEMENT_THEORY":"SGP4","REV_AT_EPOCH":"12483","ARG_OF_PERICENTER":"99.8843","TIME_SYSTEM":"UTC","GP_ID":"231293038","PERIOD":"95.593","ECCENTRICITY":"0.00012980","TLE_LINE1":"1 47582U 21009AL  23125.96165101  .00023312  00000-0  15790-2 0  9995","TLE_LINE2":"2 47582  53.0548   4.6508 0001298  99.8843 260.2292 15.06394328124839","MEAN_MOTION":"15.06394328","FILE":"3901892","SEMIMAJOR_AXIS":"6925.366","RCS_SIZE":"LARGE","EPOCH":"2023-05-05T23:04:46.647264","MEAN_MOTION_DDOT":"0.0000000000000","BSTAR":"0.00157900000000","SITE":"AFETR","MEAN_MOTION_DOT":"0.00023312","DECAY_DATE":null,"REF_FRAME":"TEME","LAUNCH_DATE":"2021-02-04","COUNTRY_CODE":"US","OBJECT_NAME":"STARLINK-1986","PERIAPSIS":"546.332","APOAPSIS":"548.130","CLASSIFICATION_TYPE":"U","MEAN_ANOMALY":"260.2292","NORAD_CAT_ID":"47582","OBJECT_ID":"2021-009AL","EPHEMERIS_TYPE":"0","CENTER_NAME":"EARTH","ELEMENT_SET_NO":"999","RA_OF_ASC_NODE":"4.6508"},{"CENTER_NAME":"EARTH","EPHEMERIS_TYPE":"0","MEAN_ANOMALY":"275.2735","CLASSIFICATION_TYPE":"U","OBJECT_ID":"2021-009AM","NORAD_CAT_ID":"47583","APOAPSIS":"547.927","ELEMENT_SET_NO":"999","RA_OF_ASC_NODE":"4.7488","OBJECT_NAME":"STARLINK-1987","COUNTRY_CODE":"US","REF_FRAME":"TEME","LAUNCH_DATE":"2021-02-04","DECAY_DATE":null,"PERIAPSIS":"546.561","PERIOD":"95.593","GP_ID":"231293005","MEAN_MOTION_DDOT":"0.0000000000000","EPOCH":"2023-05-05T22:32:56.219712","MEAN_MOTION_DOT":"0.00024053","SITE":"AFETR","BSTAR":"0.00162860000000","FILE":"3901892","RCS_SIZE":"LARGE","SEMIMAJOR_AXIS":"6925.379","TLE_LINE1":"1 47583U 21009AM  23125.93953958  .00024053  00000-0  16286-2 0  9992","TLE_LINE2":"2 47583  53.0542   4.7488 0000986  84.8366 275.2735 15.06389995124842","MEAN_MOTION":"15.06389995","ECCENTRICITY":"0.00009860","MEAN_ELEMENT_THEORY":"SGP4","REV_AT_EPOCH":"12484","INCLINATION":"53.0542","OBJECT_TYPE":"PAYLOAD","ARG_OF_PERICENTER":"84.8366","TIME_SYSTEM":"UTC"}];
